SHIYAN-1 (SY-1)         
1 28220U 04012A   26068.73650539  .00016393  00000+0  54854-3 0  9991
2 28220  97.8764 140.5238 0005873  23.6952 336.4557 15.31043463195862
STARLINK-31646          
1 59265U 24050M   26068.60946820  .00000755  00000+0  37624-4 0  9997
2 59265  53.1580 181.5497 0000905  76.7952 283.3149 15.30188574110538
